{"type": "FeatureCollection", "features": [ {"type": "Feature", "properties": {"norad_id": 41335, "name": "SENTINEL-3A", "group": "resource", "lat": -74.66409497375565, "lon": 83.10903965550796, "alt_km": 810.6017295961965, "timestamp": "2025-12-10T11:33:53.048659+00:00", "meta": {"OBJECT_NAME": "SENTINEL-3A", "OBJECT_ID": "2016-011A", "EPOCH": "2025-12-10T03:30:39.341952", "MEAN_MOTION": 14.26745004, "ECCENTRICITY": 9.53e-05, "INCLINATION": 98.621, "RA_OF_ASC_NODE": 49.1925, "ARG_OF_PERICENTER": 93.502, "MEAN_ANOMALY": 266.627, "EPHEMERIS_TYPE": 0, "CLASSIFICATION_TYPE": "U", "NORAD_CAT_ID": 41335, "ELEMENT_SET_NO": 999, "REV_AT_EPOCH": 51110, "BSTAR": 0.00010858, "MEAN_MOTION_DOT": 2.19e-06, "MEAN_MOTION_DDOT": 0}, "tle": {"line1": "1 41335U 16011A   25344.14628868  .00000219  00000+0  10858-3 0  9992", "line2": "2 41335  98.6210  49.1925 0000953  93.5020 266.6270 14.26745004511100"}}, "geometry": {"type": "Point", "coordinates": [83.10903965550796, -74.66409497375565]}}, {"type": "Feature", "properties": {"norad_id": 41556, "name": "ZIYUAN 3-2 (ZY 3-2)", "group": "resource", "lat": -14.231651149228586, "lon": 60.57572890875166, "alt_km": 505.8627498465512, "timestamp": "2025-12-10T11:33:53.048669+00:00", "meta": {"OBJECT_NAME": "ZIYUAN 3-2 (ZY 3-2)", "OBJECT_ID": "2016-033A", "EPOCH": "2025-12-10T05:18:49.899168", "MEAN_MOTION": 15.21443138, "ECCENTRICITY": 0.0012427, "INCLINATION": 97.4041, "RA_OF_ASC_NODE": 58.4295, "ARG_OF_PERICENTER": 258.9232, "MEAN_ANOMALY": 101.0607, "EPHEMERIS_TYPE": 0, "CLASSIFICATION_TYPE": "U", "NORAD_CAT_ID": 41556, "ELEMENT_SET_NO": 999, "REV_AT_EPOCH": 52925, "BSTAR": 0.00049278, "MEAN_MOTION_DOT": 0.0001103, "MEAN_MOTION_DDOT": 0}, "tle": {"line1": "1 41556U 16033A   25344.22141087  .00011030  00000+0  49278-3 0  9994", "line2": "2 41556  97.4041  58.4295 0012427 258.9232 101.0607 15.21443138529258"}}, "geometry": {"type": "Point", "coordinates": [60.57572890875166, -14.231651149228586]}}, {"type": "Feature", "properties": {"norad_id": 41599, "name": "CARTOSAT-2C", "group": "resource", "lat": -52.16639576625627, "lon": 51.49034100891754, "alt_km": 519.3159036587194, "timestamp": "2025-12-10T11:33:53.048679+00:00", "meta": {"OBJECT_NAME": "CARTOSAT-2C", "OBJECT_ID": "2016-040A", "EPOCH": "2025-12-10T03:53:35.503008", "MEAN_MOTION": 15.19251394, "ECCENTRICITY": 0.0010876, "INCLINATION": 97.4766, "RA_OF_ASC_NODE": 41.4383, "ARG_OF_PERICENTER": 72.6943, "MEAN_ANOMALY": 287.548, "EPHEMERIS_TYPE": 0, "CLASSIFICATION_TYPE": "U", "NORAD_CAT_ID": 41599, "ELEMENT_SET_NO": 999, "REV_AT_EPOCH": 52501, "BSTAR": 0.00022305, "MEAN_MOTION_DOT": 4.639e-05, "MEAN_MOTION_DDOT": 0}, "tle": {"line1": "1 41599U 16040A   25344.16221647  .00004639  00000+0  22305-3 0  9992", "line2": "2 41599  97.4766  41.4383 0010876  72.6943 287.5480 15.19251394525012"}}, "geometry": {"type": "Point", "coordinates": [51.49034100891754, -52.16639576625627]}}, {"type": "Feature", "properties": {"norad_id": 41601, "name": "SKYSAT-C1", "group": "resource", "lat": -73.38967295600189, "lon": 177.3644861269629, "alt_km": 476.741442435482, "timestamp": "2025-12-10T11:33:53.048690+00:00", "meta": {"OBJECT_NAME": "SKYSAT-C1", "OBJECT_ID": "2016-040C", "EPOCH": "2025-12-10T01:03:12.196224", "MEAN_MOTION": 15.32510525, "ECCENTRICITY": 0.000268, "INCLINATION": 96.9824, "RA_OF_ASC_NODE": 21.2092, "ARG_OF_PERICENTER": 23.5908, "MEAN_ANOMALY": 336.5457, "EPHEMERIS_TYPE": 0, "CLASSIFICATION_TYPE": "U", "NORAD_CAT_ID": 41601, "ELEMENT_SET_NO": 999, "REV_AT_EPOCH": 52886, "BSTAR": 0.00041563, "MEAN_MOTION_DOT": 0.00012984, "MEAN_MOTION_DDOT": 0}, "tle": {"line1": "1 41601U 16040C   25344.04389116  .00012984  00000+0  41563-3 0  9998", "line2": "2 41601  96.9824  21.2092 0002680  23.5908 336.5457 15.32510525528862"}}, "geometry": {"type": "Point", "coordinates": [177.3644861269629, -73.38967295600189]}}, {"type": "Feature", "properties": {"norad_id": 41603, "name": "LAPAN-A3", "group": "resource", "lat": 46.433616832805754, "lon": -25.456588963582675, "alt_km": 464.3194399024451, "timestamp": "2025-12-10T11:33:53.048700+00:00", "meta": {"OBJECT_NAME": "LAPAN-A3", "OBJECT_ID": "2016-040E", "EPOCH": "2025-12-10T05:05:18.838176", "MEAN_MOTION": 15.31518342, "ECCENTRICITY": 0.0009942, "INCLINATION": 97.1433, "RA_OF_ASC_NODE": 341.8599, "ARG_OF_PERICENTER": 343.669, "MEAN_ANOMALY": 16.423, "EPHEMERIS_TYPE": 0, "CLASSIFICATION_TYPE": "U", "NORAD_CAT_ID": 41603, "ELEMENT_SET_NO": 999, "REV_AT_EPOCH": 52587, "BSTAR": 0.00018168, "MEAN_MOTION_DOT": 5.463e-05, "MEAN_MOTION_DDOT": 0}, "tle": {"line1": "1 41603U 16040E   25344.21202359  .00005463  00000+0  18168-3 0  9991", "line2": "2 41603  97.1433 341.8599 0009942 343.6690  16.4230 15.31518342525873"}}, "geometry": {"type": "Point", "coordinates": [-25.456588963582675, 46.433616832805754]}}, {"type": "Feature", "properties": {"norad_id": 41604, "name": "BIROS", "group": "resource", "lat": 57.50310571595138, "lon": -152.93912920719202, "alt_km": 298.7476152819845, "timestamp": "2025-12-10T11:33:53.048710+00:00", "meta": {"OBJECT_NAME": "BIROS", "OBJECT_ID": "2016-040F", "EPOCH": "2025-12-10T01:58:59.670048", "MEAN_MOTION": 15.88522659, "ECCENTRICITY": 0.0003168, "INCLINATION": 97.0703, "RA_OF_ASC_NODE": 15.4098, "ARG_OF_PERICENTER": 156.5515, "MEAN_ANOMALY": 203.5903, "EPHEMERIS_TYPE": 0, "CLASSIFICATION_TYPE": "U", "NORAD_CAT_ID": 41604, "ELEMENT_SET_NO": 999, "REV_AT_EPOCH": 52830, "BSTAR": 0.00072042, "MEAN_MOTION_DOT": 0.00203476, "MEAN_MOTION_DDOT": 0}, "tle": {"line1": "1 41604U 16040F   25344.08263507  .00203476  00000+0  72042-3 0  9994", "line2": "2 41604  97.0703  15.4098 0003168 156.5515 203.5903 15.88522659528307"}}, "geometry": {"type": "Point", "coordinates": [-152.93912920719202, 57.50310571595138]}}, {"type": "Feature", "properties": {"norad_id": 41727, "name": "GAOFEN-3", "group": "resource", "lat": -8.973040528712959, "lon": 168.76473266243082, "alt_km": 755.860946785625, "timestamp": "2025-12-10T11:33:53.048720+00:00", "meta": {"OBJECT_NAME": "GAOFEN-3", "OBJECT_ID": "2016-049A", "EPOCH": "2025-12-10T04:01:52.230432", "MEAN_MOTION": 14.42212515, "ECCENTRICITY": 0.0001499, "INCLINATION": 98.4038, "RA_OF_ASC_NODE": 349.7932, "ARG_OF_PERICENTER": 64.6229, "MEAN_ANOMALY": 295.5115, "EPHEMERIS_TYPE": 0, "CLASSIFICATION_TYPE": "U", "NORAD_CAT_ID": 41727, "ELEMENT_SET_NO": 999, "REV_AT_EPOCH": 49140, "BSTAR": 5.4691e-05, "MEAN_MOTION_DOT": 1.37e-06, "MEAN_MOTION_DDOT": 0}, "tle": {"line1": "1 41727U 16049A   25344.16796563  .00000137  00000+0  54691-4 0  9991", "line2": "2 41727  98.4038 349.7932 0001499  64.6229 295.5115 14.42212515491407"}}, "geometry": {"type": "Point", "coordinates": [168.76473266243082, -8.973040528712959]}}, {"type": "Feature", "properties": {"norad_id": 41771, "name": "SKYSAT-C4", "group": "resource", "lat": 67.07889100721249, "lon": -153.48495655227364, "alt_km": 432.5003453970212, "timestamp": "2025-12-10T11:33:53.048730+00:00", "meta": {"OBJECT_NAME": "SKYSAT-C4", "OBJECT_ID": "2016-058B", "EPOCH": "2025-12-10T01:44:15.225216", "MEAN_MOTION": 15.42126604, "ECCENTRICITY": 0.0001244, "INCLINATION": 96.9376, "RA_OF_ASC_NODE": 9.3894, "ARG_OF_PERICENTER": 134.424, "MEAN_ANOMALY": 225.711, "EPHEMERIS_TYPE": 0, "CLASSIFICATION_TYPE": "U", "NORAD_CAT_ID": 41771, "ELEMENT_SET_NO": 999, "REV_AT_EPOCH": 51626, "BSTAR": 0.00046822, "MEAN_MOTION_DOT": 0.00019988, "MEAN_MOTION_DDOT": 0}, "tle": {"line1": "1 41771U 16058B   25344.07239844  .00019988  00000+0  46822-3 0  9994", "line2": "2 41771  96.9376   9.3894 0001244 134.4240 225.7110 15.42126604516263"}}, "geometry": {"type": "Point", "coordinates": [-153.48495655227364, 67.07889100721249]}}, {"type": "Feature", "properties": {"norad_id": 41772, "name": "SKYSAT-C5", "group": "resource", "lat": 80.14162424825479, "lon": -17.304755416712037, "alt_km": 451.7559891068886, "timestamp": "2025-12-10T11:33:53.048740+00:00", "meta": {"OBJECT_NAME": "SKYSAT-C5", "OBJECT_ID": "2016-058C", "EPOCH": "2025-12-10T01:49:06.832128", "MEAN_MOTION": 15.35285929, "ECCENTRICITY": 0.0002392, "INCLINATION": 97.076, "RA_OF_ASC_NODE": 27.9328, "ARG_OF_PERICENTER": 140.8238, "MEAN_ANOMALY": 219.3179, "EPHEMERIS_TYPE": 0, "CLASSIFICATION_TYPE": "U", "NORAD_CAT_ID": 41772, "ELEMENT_SET_NO": 999, "REV_AT_EPOCH": 51475, "BSTAR": 0.00041503, "MEAN_MOTION_DOT": 0.00014155, "MEAN_MOTION_DDOT": 0}, "tle": {"line1": "1 41772U 16058C   25344.07577352  .00014155  00000+0  41503-3 0  9996", "line2": "2 41772  97.0760  27.9328 0002392 140.8238 219.3179 15.35285929514758"}}, "geometry": {"type": "Point", "coordinates": [-17.304755416712037, 80.14162424825479]}}, {"type": "Feature", "properties": {"norad_id": 41773, "name": "SKYSAT-C2", "group": "resource", "lat": 75.14805976968843, "lon": -18.656399161694324, "alt_km": 444.864616208346, "timestamp": "2025-12-10T11:33:53.048750+00:00", "meta": {"OBJECT_NAME": "SKYSAT-C2", "OBJECT_ID": "2016-058D", "EPOCH": "2025-12-10T00:17:43.760256", "MEAN_MOTION": 15.37170286, "ECCENTRICITY": 0.0004512, "INCLINATION": 97.0363, "RA_OF_ASC_NODE": 8.6544, "ARG_OF_PERICENTER": 41.483, "MEAN_ANOMALY": 318.6757, "EPHEMERIS_TYPE": 0, "CLASSIFICATION_TYPE": "U", "NORAD_CAT_ID": 41773, "ELEMENT_SET_NO": 999, "REV_AT_EPOCH": 51594, "BSTAR": 0.00043902, "MEAN_MOTION_DOT": 0.00015919, "MEAN_MOTION_DDOT": 0}, "tle": {"line1": "1 41773U 16058D   25344.01231204  .00015919  00000+0  43902-3 0  9998", "line2": "2 41773  97.0363   8.6544 0004512  41.4830 318.6757 15.37170286515942"}}, "geometry": {"type": "Point", "coordinates": [-18.656399161694324, 75.14805976968843]}}]}